{"type": "FeatureCollection", "features": [ {"type": "Feature", "properties": {"norad_id": 34529, "name": "IRIDIUM 33 DEB", "group": "iridium-33-debris", "lat": -35.362906474846106, "lon": -140.58151348345362, "alt_km": 760.0684170669219, "timestamp": "2025-12-09T09:46:48.030753+00:00", "meta": {"OBJECT_NAME": "IRIDIUM 33 DEB", "OBJECT_ID": "1997-051HW", "EPOCH": "2025-12-09T03:46:56.685792", "MEAN_MOTION": 14.40611183, "ECCENTRICITY": 0.0004351, "INCLINATION": 86.3644, "RA_OF_ASC_NODE": 36.9388, "ARG_OF_PERICENTER": 189.2573, "MEAN_ANOMALY": 170.8546, "EPHEMERIS_TYPE": 0, "CLASSIFICATION_TYPE": "U", "NORAD_CAT_ID": 34529, "ELEMENT_SET_NO": 999, "REV_AT_EPOCH": 88090, "BSTAR": 0.00017454, "MEAN_MOTION_DOT": 5.76e-06, "MEAN_MOTION_DDOT": 0}, "tle": {"line1": "1 34529U 97051HW  25343.15760053  .00000576  00000+0  17454-3 0  9990", "line2": "2 34529  86.3644  36.9388 0004351 189.2573 170.8546 14.40611183880906"}}, "geometry": {"type": "Point", "coordinates": [-140.58151348345362, -35.362906474846106]}}, {"type": "Feature", "properties": {"norad_id": 34538, "name": "IRIDIUM 33 DEB", "group": "iridium-33-debris", "lat": 28.336627060097143, "lon": 9.027638944619149, "alt_km": 733.1320811289961, "timestamp": "2025-12-09T09:46:48.030764+00:00", "meta": {"OBJECT_NAME": "IRIDIUM 33 DEB", "OBJECT_ID": "1997-051JF", "EPOCH": "2025-12-09T01:27:44.676000", "MEAN_MOTION": 14.42613154, "ECCENTRICITY": 0.0033259, "INCLINATION": 86.2774, "RA_OF_ASC_NODE": 7.1673, "ARG_OF_PERICENTER": 340.491, "MEAN_ANOMALY": 49.0054, "EPHEMERIS_TYPE": 0, "CLASSIFICATION_TYPE": "U", "NORAD_CAT_ID": 34538, "ELEMENT_SET_NO": 999, "REV_AT_EPOCH": 87703, "BSTAR": 0.0011231, "MEAN_MOTION_DOT": 3.773e-05, "MEAN_MOTION_DDOT": 0}, "tle": {"line1": "1 34538U 97051JF  25343.06093375  .00003773  00000+0  11231-2 0  9994", "line2": "2 34538  86.2774   7.1673 0033259 340.4910  49.0054 14.42613154877034"}}, "geometry": {"type": "Point", "coordinates": [9.027638944619149, 28.336627060097143]}}, {"type": "Feature", "properties": {"norad_id": 34540, "name": "IRIDIUM 33 DEB", "group": "iridium-33-debris", "lat": 55.078741271941276, "lon": -45.56724637729267, "alt_km": 644.1626861797458, "timestamp": "2025-12-09T09:46:48.030775+00:00", "meta": {"OBJECT_NAME": "IRIDIUM 33 DEB", "OBJECT_ID": "1997-051JH", "EPOCH": "2025-12-08T22:22:37.047936", "MEAN_MOTION": 14.75190663, "ECCENTRICITY": 0.0015753, "INCLINATION": 86.3106, "RA_OF_ASC_NODE": 309.347, "ARG_OF_PERICENTER": 172.6926, "MEAN_ANOMALY": 241.175, "EPHEMERIS_TYPE": 0, "CLASSIFICATION_TYPE": "U", "NORAD_CAT_ID": 34540, "ELEMENT_SET_NO": 999, "REV_AT_EPOCH": 88965, "BSTAR": 0.0020556, "MEAN_MOTION_DOT": 0.0001395, "MEAN_MOTION_DDOT": 0}, "tle": {"line1": "1 34540U 97051JH  25342.93237324  .00013950  00000+0  20556-2 0  9994", "line2": "2 34540  86.3106 309.3470 0015753 172.6926 241.1750 14.75190663889650"}}, "geometry": {"type": "Point", "coordinates": [-45.56724637729267, 55.078741271941276]}}, {"type": "Feature", "properties": {"norad_id": 34648, "name": "IRIDIUM 33 DEB", "group": "iridium-33-debris", "lat": -64.9865902224471, "lon": 111.06444121010455, "alt_km": 801.9688243549872, "timestamp": "2025-12-09T09:46:48.030786+00:00", "meta": {"OBJECT_NAME": "IRIDIUM 33 DEB", "OBJECT_ID": "1997-051JZ", "EPOCH": "2025-12-08T20:41:39.004800", "MEAN_MOTION": 14.11300262, "ECCENTRICITY": 0.01839546, "INCLINATION": 86.3913, "RA_OF_ASC_NODE": 283.5113, "ARG_OF_PERICENTER": 310.9542, "MEAN_ANOMALY": 47.5843, "EPHEMERIS_TYPE": 0, "CLASSIFICATION_TYPE": "U", "NORAD_CAT_ID": 34648, "ELEMENT_SET_NO": 999, "REV_AT_EPOCH": 84906, "BSTAR": 0.013206348, "MEAN_MOTION_DOT": 0.00028062, "MEAN_MOTION_DDOT": 0}, "tle": {"line1": "1 34648U 97051JZ  25342.86225700  .00028062  00000+0  13206-1 0  9993", "line2": "2 34648  86.3913 283.5113 0183954 310.9542  47.5843 14.11300262849062"}}, "geometry": {"type": "Point", "coordinates": [111.06444121010455, -64.9865902224471]}}, {"type": "Feature", "properties": {"norad_id": 34651, "name": "IRIDIUM 33 DEB", "group": "iridium-33-debris", "lat": 48.62617201442397, "lon": -42.23551576986862, "alt_km": 788.4738118648966, "timestamp": "2025-12-09T09:46:48.030797+00:00", "meta": {"OBJECT_NAME": "IRIDIUM 33 DEB", "OBJECT_ID": "1997-051KC", "EPOCH": "2025-12-08T21:21:49.899168", "MEAN_MOTION": 14.25711995, "ECCENTRICITY": 0.0142002, "INCLINATION": 86.2851, "RA_OF_ASC_NODE": 142.2145, "ARG_OF_PERICENTER": 216.1504, "MEAN_ANOMALY": 143.0026, "EPHEMERIS_TYPE": 0, "CLASSIFICATION_TYPE": "U", "NORAD_CAT_ID": 34651, "ELEMENT_SET_NO": 999, "REV_AT_EPOCH": 85841, "BSTAR": 0.0042946, "MEAN_MOTION_DOT": 0.00011352, "MEAN_MOTION_DDOT": 0}, "tle": {"line1": "1 34651U 97051KC  25342.89016087  .00011352  00000+0  42946-2 0  9994", "line2": "2 34651  86.2851 142.2145 0142002 216.1504 143.0026 14.25711995858414"}}, "geometry": {"type": "Point", "coordinates": [-42.23551576986862, 48.62617201442397]}}, {"type": "Feature", "properties": {"norad_id": 34652, "name": "IRIDIUM 33 DEB", "group": "iridium-33-debris", "lat": 69.98086061826275, "lon": 151.34133816719464, "alt_km": 697.3806948776055, "timestamp": "2025-12-09T09:46:48.030808+00:00", "meta": {"OBJECT_NAME": "IRIDIUM 33 DEB", "OBJECT_ID": "1997-051KD", "EPOCH": "2025-12-08T10:58:52.274208", "MEAN_MOTION": 14.61994532, "ECCENTRICITY": 0.00263276, "INCLINATION": 86.3309, "RA_OF_ASC_NODE": 341.9078, "ARG_OF_PERICENTER": 313.8102, "MEAN_ANOMALY": 199.1921, "EPHEMERIS_TYPE": 0, "CLASSIFICATION_TYPE": "U", "NORAD_CAT_ID": 34652, "ELEMENT_SET_NO": 999, "REV_AT_EPOCH": 88421, "BSTAR": 0.0013948529, "MEAN_MOTION_DOT": 7.048e-05, "MEAN_MOTION_DDOT": 0}, "tle": {"line1": "1 34652U 97051KD  25342.45754947  .00007048  00000+0  13949-2 0  9999", "line2": "2 34652  86.3309 341.9078 0026327 313.8102 199.1921 14.61994532884210"}}, "geometry": {"type": "Point", "coordinates": [151.34133816719464, 69.98086061826275]}}, {"type": "Feature", "properties": {"norad_id": 34690, "name": "IRIDIUM 33 DEB", "group": "iridium-33-debris", "lat": 55.429000890384714, "lon": 43.71343687780272, "alt_km": 696.2598748480532, "timestamp": "2025-12-09T09:46:48.030819+00:00", "meta": {"OBJECT_NAME": "IRIDIUM 33 DEB", "OBJECT_ID": "1997-051KM", "EPOCH": "2025-12-08T22:13:37.657056", "MEAN_MOTION": 14.5507276, "ECCENTRICITY": 0.0011287, "INCLINATION": 86.378, "RA_OF_ASC_NODE": 38.6486, "ARG_OF_PERICENTER": 40.9093, "MEAN_ANOMALY": 14.7923, "EPHEMERIS_TYPE": 0, "CLASSIFICATION_TYPE": "U", "NORAD_CAT_ID": 34690, "ELEMENT_SET_NO": 999, "REV_AT_EPOCH": 88039, "BSTAR": 0.00058226382, "MEAN_MOTION_DOT": 2.533e-05, "MEAN_MOTION_DDOT": 0}, "tle": {"line1": "1 34690U 97051KM  25342.92613029  .00002533  00000+0  58226-3 0  9990", "line2": "2 34690  86.3780  38.6486 0011287  40.9093  14.7923 14.55072760880396"}}, "geometry": {"type": "Point", "coordinates": [43.71343687780272, 55.429000890384714]}}, {"type": "Feature", "properties": {"norad_id": 34693, "name": "IRIDIUM 33 DEB", "group": "iridium-33-debris", "lat": -41.3419993173357, "lon": -57.780019296533446, "alt_km": 493.96635644840444, "timestamp": "2025-12-09T09:46:48.030830+00:00", "meta": {"OBJECT_NAME": "IRIDIUM 33 DEB", "OBJECT_ID": "1997-051KQ", "EPOCH": "2025-12-08T21:28:44.929344", "MEAN_MOTION": 15.26526055, "ECCENTRICITY": 0.0014837, "INCLINATION": 86.3061, "RA_OF_ASC_NODE": 305.7325, "ARG_OF_PERICENTER": 58.9741, "MEAN_ANOMALY": 325.0117, "EPHEMERIS_TYPE": 0, "CLASSIFICATION_TYPE": "U", "NORAD_CAT_ID": 34693, "ELEMENT_SET_NO": 999, "REV_AT_EPOCH": 88856, "BSTAR": 0.0052510679, "MEAN_MOTION_DOT": 0.00139885, "MEAN_MOTION_DDOT": 0}, "tle": {"line1": "1 34693U 97051KQ  25342.89496446  .00139885  00000+0  52511-2 0  9992", "line2": "2 34693  86.3061 305.7325 0014837  58.9741 325.0117 15.26526055888564"}}, "geometry": {"type": "Point", "coordinates": [-57.780019296533446, -41.3419993173357]}}, {"type": "Feature", "properties": {"norad_id": 34696, "name": "IRIDIUM 33 DEB", "group": "iridium-33-debris", "lat": 74.47051124236248, "lon": 42.96763108899497, "alt_km": 682.7818836004071, "timestamp": "2025-12-09T09:46:48.030840+00:00", "meta": {"OBJECT_NAME": "IRIDIUM 33 DEB", "OBJECT_ID": "1997-051KT", "EPOCH": "2025-12-08T14:27:39.651264", "MEAN_MOTION": 14.64750758, "ECCENTRICITY": 0.0074318, "INCLINATION": 86.1849, "RA_OF_ASC_NODE": 29.4472, "ARG_OF_PERICENTER": 181.4638, "MEAN_ANOMALY": 332.3745, "EPHEMERIS_TYPE": 0, "CLASSIFICATION_TYPE": "U", "NORAD_CAT_ID": 34696, "ELEMENT_SET_NO": 999, "REV_AT_EPOCH": 86612, "BSTAR": 0.0061608, "MEAN_MOTION_DOT": 0.00034329, "MEAN_MOTION_DDOT": 0}, "tle": {"line1": "1 34696U 97051KT  25342.60254226  .00034329  00000+0  61608-2 0  9996", "line2": "2 34696  86.1849  29.4472 0074318 181.4638 332.3745 14.64750758866125"}}, "geometry": {"type": "Point", "coordinates": [42.96763108899497, 74.47051124236248]}}, {"type": "Feature", "properties": {"norad_id": 34765, "name": "IRIDIUM 33 DEB", "group": "iridium-33-debris", "lat": -79.04345380223891, "lon": -126.49877187697957, "alt_km": 755.7868435531163, "timestamp": "2025-12-09T09:46:48.030850+00:00", "meta": {"OBJECT_NAME": "IRIDIUM 33 DEB", "OBJECT_ID": "1997-051LJ", "EPOCH": "2025-12-08T21:29:33.152640", "MEAN_MOTION": 14.40449465, "ECCENTRICITY": 0.00150613, "INCLINATION": 86.3395, "RA_OF_ASC_NODE": 34.4111, "ARG_OF_PERICENTER": 224.9418, "MEAN_ANOMALY": 261.3628, "EPHEMERIS_TYPE": 0, "CLASSIFICATION_TYPE": "U", "NORAD_CAT_ID": 34765, "ELEMENT_SET_NO": 999, "REV_AT_EPOCH": 87558, "BSTAR": 0.00055464873, "MEAN_MOTION_DOT": 1.783e-05, "MEAN_MOTION_DDOT": 0}, "tle": {"line1": "1 34765U 97051LJ  25342.89552260  .00001783  00000+0  55465-3 0  9996", "line2": "2 34765  86.3395  34.4111 0015061 224.9418 261.3628 14.40449465875580"}}, "geometry": {"type": "Point", "coordinates": [-126.49877187697957, -79.04345380223891]}}]}